ONEWEB-0348             
1 49213U 21083AD  25240.76866779  .00000067  00000+0  13227-3 0  9992
2 49213  87.9288 332.7307 0002235 113.7329 246.4039 13.20770061198212
ONEWEB-0350             
1 49214U 21083AE  25240.90344852  .00000300  00000+0  78683-3 0  9999
2 49214  87.9013  18.2827 0001708 105.4404 254.6914 13.13470352192565
ONEWEB-0351             
1 49215U 21083AF  25240.76221878  .00000072  00000+0  14402-3 0  9991
2 49215  87.9298 332.7175 0001001  96.8384 263.2863 13.20770528198175
ONEWEB-0352             
1 49216U 21083AG  25240.88397285 -.00000146  00000+0 -43413-3 0  9999
2 49216  87.8998  18.3244 0001305  93.5287 266.5991 13.13469882192654
ONEWEB-0354             
1 49217U 21083AH  25240.78760733 -.00000020  00000+0 -80945-4 0  9994
2 49217  87.9299 332.7106 0001939 108.3830 251.7514 13.20772780198219
ONEWEB-0355             
1 49218U 21083AJ  25240.91288677  .00000350  00000+0  92459-3 0  9998
2 49218  87.9017  18.3217 0001554 101.7254 258.4050 13.13467886192536
ONEWEB-0357             
1 49219U 21083AK  25240.78444918 -.00000015  00000+0 -67807-4 0  9996
2 49219  87.9290 332.7127 0001706 100.8751 259.2574 13.20773040198215
ONEWEB-0332             
1 49279U 21090A   25240.85022113 -.00000069  00000+0 -22073-3 0  9991
2 49279  87.9091 347.9115 0001693  91.5381 268.5942 13.14502005189176
ONEWEB-0347             
1 49280U 21090B   25240.77497442 -.00000053  00000+0 -16335-3 0  9992
2 49280  87.9298 332.7271 0001959  89.2921 270.8437 13.20773377192449
ONEWEB-0349             
1 49281U 21090C   25240.80654578 -.00000005  00000+0 -45374-4 0  9995
2 49281  87.9289 332.7226 0001789 100.9169 259.2165 13.20773585191232
ONEWEB-0353             
1 49282U 21090D   25240.84230097  .00000136  00000+0  33113-3 0  9996
2 49282  87.9086 347.8994 0001753  90.8432 269.2899 13.14502335189179
ONEWEB-0356             
1 49283U 21090E   25240.80496196  .00000020  00000+0  16466-4 0  9992
2 49283  87.9289 332.7144 0002796  95.6343 264.5109 13.20773251191233
ONEWEB-0358             
1 49284U 21090F   25240.75918772  .00000079  00000+0  16129-3 0  9995
2 49284  87.9302 332.7154 0001996 102.2848 257.8509 13.20773950191951
ONEWEB-0359             
1 49285U 21090G   25240.22574693  .00000096  00000+0  20375-3 0  9995
2 49285  87.9291 332.8303 0001994 110.5518 249.5830 13.20772452191861
ONEWEB-0360             
1 49286U 21090H   25240.82234094  .00000172  00000+0  39000-3 0  9990
2 49286  87.9285 332.7208 0001859 104.9551 255.1788 13.20771511191255
ONEWEB-0361             
1 49287U 21090J   25240.80339443 -.00000012  00000+0 -62177-4 0  9990
2 49287  87.9293 332.7195 0002062  98.5888 261.5479 13.20773090191700
