[{"OBJECT_NAME":"ONEWEB-0348","OBJECT_ID":"2021-083AD","EPOCH":"2025-08-28T18:26:52.897056","MEAN_MOTION":13.20770061,"ECCENTRICITY":0.00022357,"INCLINATION":87.9288,"RA_OF_ASC_NODE":332.7307,"ARG_OF_PERICENTER":113.7329,"MEAN_ANOMALY":246.4039,"EPHEMERIS_TYPE":0,"CLASSIFICATION_TYPE":"U","NORAD_CAT_ID":49213,"ELEMENT_SET_NO":999,"REV_AT_EPOCH":19821,"BSTAR":0.00013226902,"MEAN_MOTION_DOT":6.7e-7,"MEAN_MOTION_DDOT":0},{"OBJECT_NAME":"ONEWEB-0350","OBJECT_ID":"2021-083AE","EPOCH":"2025-08-28T21:40:57.952128","MEAN_MOTION":13.13470352,"ECCENTRICITY":0.00017089,"INCLINATION":87.9013,"RA_OF_ASC_NODE":18.2827,"ARG_OF_PERICENTER":105.4404,"MEAN_ANOMALY":254.6914,"EPHEMERIS_TYPE":0,"CLASSIFICATION_TYPE":"U","NORAD_CAT_ID":49214,"ELEMENT_SET_NO":999,"REV_AT_EPOCH":19256,"BSTAR":0.00078682876,"MEAN_MOTION_DOT":3.0e-6,"MEAN_MOTION_DDOT":0},{"OBJECT_NAME":"ONEWEB-0351","OBJECT_ID":"2021-083AF","EPOCH":"2025-08-28T18:17:35.702592","MEAN_MOTION":13.20770528,"ECCENTRICITY":0.00010013,"INCLINATION":87.9298,"RA_OF_ASC_NODE":332.7175,"ARG_OF_PERICENTER":96.8384,"MEAN_ANOMALY":263.2863,"EPHEMERIS_TYPE":0,"CLASSIFICATION_TYPE":"U","NORAD_CAT_ID":49215,"ELEMENT_SET_NO":999,"REV_AT_EPOCH":19817,"BSTAR":0.00014402381,"MEAN_MOTION_DOT":7.2e-7,"MEAN_MOTION_DDOT":0},{"OBJECT_NAME":"ONEWEB-0352","OBJECT_ID":"2021-083AG","EPOCH":"2025-08-28T21:12:55.254240","MEAN_MOTION":13.13469882,"ECCENTRICITY":0.00013056,"INCLINATION":87.8998,"RA_OF_ASC_NODE":18.3244,"ARG_OF_PERICENTER":93.5287,"MEAN_ANOMALY":266.5991,"EPHEMERIS_TYPE":0,"CLASSIFICATION_TYPE":"U","NORAD_CAT_ID":49216,"ELEMENT_SET_NO":999,"REV_AT_EPOCH":19265,"BSTAR":-0.00043413329,"MEAN_MOTION_DOT":-1.46e-6,"MEAN_MOTION_DDOT":0},{"OBJECT_NAME":"ONEWEB-0354","OBJECT_ID":"2021-083AH","EPOCH":"2025-08-28T18:54:09.273312","MEAN_MOTION":13.2077278,"ECCENTRICITY":0.00019395,"INCLINATION":87.9299,"RA_OF_ASC_NODE":332.7106,"ARG_OF_PERICENTER":108.383,"MEAN_ANOMALY":251.7514,"EPHEMERIS_TYPE":0,"CLASSIFICATION_TYPE":"U","NORAD_CAT_ID":49217,"ELEMENT_SET_NO":999,"REV_AT_EPOCH":19821,"BSTAR":-8.0945252e-5,"MEAN_MOTION_DOT":-2.0e-7,"MEAN_MOTION_DDOT":0},{"OBJECT_NAME":"ONEWEB-0355","OBJECT_ID":"2021-083AJ","EPOCH":"2025-08-28T21:54:33.416928","MEAN_MOTION":13.13467886,"ECCENTRICITY":0.00015542,"INCLINATION":87.9017,"RA_OF_ASC_NODE":18.3217,"ARG_OF_PERICENTER":101.7254,"MEAN_ANOMALY":258.405,"EPHEMERIS_TYPE":0,"CLASSIFICATION_TYPE":"U","NORAD_CAT_ID":49218,"ELEMENT_SET_NO":999,"REV_AT_EPOCH":19253,"BSTAR":0.00092459231,"MEAN_MOTION_DOT":3.5e-6,"MEAN_MOTION_DDOT":0},{"OBJECT_NAME":"ONEWEB-0357","OBJECT_ID":"2021-083AK","EPOCH":"2025-08-28T18:49:36.409152","MEAN_MOTION":13.2077304,"ECCENTRICITY":0.00017062,"INCLINATION":87.929,"RA_OF_ASC_NODE":332.7127,"ARG_OF_PERICENTER":100.8751,"MEAN_ANOMALY":259.2574,"EPHEMERIS_TYPE":0,"CLASSIFICATION_TYPE":"U","NORAD_CAT_ID":49219,"ELEMENT_SET_NO":999,"REV_AT_EPOCH":19821,"BSTAR":-6.7807022e-5,"MEAN_MOTION_DOT":-1.5e-7,"MEAN_MOTION_DDOT":0},{"OBJECT_NAME":"ONEWEB-0332","OBJECT_ID":"2021-090A","EPOCH":"2025-08-28T20:24:19.105632","MEAN_MOTION":13.14502005,"ECCENTRICITY":0.00016938,"INCLINATION":87.9091,"RA_OF_ASC_NODE":347.9115,"ARG_OF_PERICENTER":91.5381,"MEAN_ANOMALY":268.5942,"EPHEMERIS_TYPE":0,"CLASSIFICATION_TYPE":"U","NORAD_CAT_ID":49279,"ELEMENT_SET_NO":999,"REV_AT_EPOCH":18917,"BSTAR":-0.00022073206,"MEAN_MOTION_DOT":-6.9e-7,"MEAN_MOTION_DDOT":0},{"OBJECT_NAME":"ONEWEB-0347","OBJECT_ID":"2021-090B","EPOCH":"2025-08-28T18:35:57.789888","MEAN_MOTION":13.20773377,"ECCENTRICITY":0.00019597,"INCLINATION":87.9298,"RA_OF_ASC_NODE":332.7271,"ARG_OF_PERICENTER":89.2921,"MEAN_ANOMALY":270.8437,"EPHEMERIS_TYPE":0,"CLASSIFICATION_TYPE":"U","NORAD_CAT_ID":49280,"ELEMENT_SET_NO":999,"REV_AT_EPOCH":19244,"BSTAR":-0.00016335032,"MEAN_MOTION_DOT":-5.3e-7,"MEAN_MOTION_DDOT":0},{"OBJECT_NAME":"ONEWEB-0349","OBJECT_ID":"2021-090C","EPOCH":"2025-08-28T19:21:25.555392","MEAN_MOTION":13.20773585,"ECCENTRICITY":0.00017898,"INCLINATION":87.9289,"RA_OF_ASC_NODE":332.7226,"ARG_OF_PERICENTER":100.9169,"MEAN_ANOMALY":259.2165,"EPHEMERIS_TYPE":0,"CLASSIFICATION_TYPE":"U","NORAD_CAT_ID":49281,"ELEMENT_SET_NO":999,"REV_AT_EPOCH":19123,"BSTAR":-4.5373922e-5,"MEAN_MOTION_DOT":-5.0e-8,"MEAN_MOTION_DDOT":0},{"OBJECT_NAME":"ONEWEB-0353","OBJECT_ID":"2021-090D","EPOCH":"2025-08-28T20:12:54.803808","MEAN_MOTION":13.14502335,"ECCENTRICITY":0.00017534,"INCLINATION":87.9086,"RA_OF_ASC_NODE":347.8994,"ARG_OF_PERICENTER":90.8432,"MEAN_ANOMALY":269.2899,"EPHEMERIS_TYPE":0,"CLASSIFICATION_TYPE":"U","NORAD_CAT_ID":49282,"ELEMENT_SET_NO":999,"REV_AT_EPOCH":18917,"BSTAR":0.00033112893,"MEAN_MOTION_DOT":1.36e-6,"MEAN_MOTION_DDOT":0},{"OBJECT_NAME":"ONEWEB-0356","OBJECT_ID":"2021-090E","EPOCH":"2025-08-28T19:19:08.713344","MEAN_MOTION":13.20773251,"ECCENTRICITY":0.0002796,"INCLINATION":87.9289,"RA_OF_ASC_NODE":332.7144,"ARG_OF_PERICENTER":95.6343,"MEAN_ANOMALY":264.5109,"EPHEMERIS_TYPE":0,"CLASSIFICATION_TYPE":"U","NORAD_CAT_ID":49283,"ELEMENT_SET_NO":999,"REV_AT_EPOCH":19123,"BSTAR":1.6466391e-5,"MEAN_MOTION_DOT":2.0e-7,"MEAN_MOTION_DDOT":0},{"OBJECT_NAME":"ONEWEB-0358","OBJECT_ID":"2021-090F","EPOCH":"2025-08-28T18:13:13.819008","MEAN_MOTION":13.2077395,"ECCENTRICITY":0.0001996,"INCLINATION":87.9302,"RA_OF_ASC_NODE":332.7154,"ARG_OF_PERICENTER":102.2848,"MEAN_ANOMALY":257.8509,"EPHEMERIS_TYPE":0,"CLASSIFICATION_TYPE":"U","NORAD_CAT_ID":49284,"ELEMENT_SET_NO":999,"REV_AT_EPOCH":19195,"BSTAR":0.00016128581,"MEAN_MOTION_DOT":7.9e-7,"MEAN_MOTION_DDOT":0},{"OBJECT_NAME":"ONEWEB-0359","OBJECT_ID":"2021-090G","EPOCH":"2025-08-28T05:25:04.534752","MEAN_MOTION":13.20772452,"ECCENTRICITY":0.00019943,"INCLINATION":87.9291,"RA_OF_ASC_NODE":332.8303,"ARG_OF_PERICENTER":110.5518,"MEAN_ANOMALY":249.583,"EPHEMERIS_TYPE":0,"CLASSIFICATION_TYPE":"U","NORAD_CAT_ID":49285,"ELEMENT_SET_NO":999,"REV_AT_EPOCH":19186,"BSTAR":0.00020375458,"MEAN_MOTION_DOT":9.6e-7,"MEAN_MOTION_DDOT":0},{"OBJECT_NAME":"ONEWEB-0360","OBJECT_ID":"2021-090H","EPOCH":"2025-08-28T19:44:10.257216","MEAN_MOTION":13.20771511,"ECCENTRICITY":0.00018596,"INCLINATION":87.9285,"RA_OF_ASC_NODE":332.7208,"ARG_OF_PERICENTER":104.9551,"MEAN_ANOMALY":255.1788,"EPHEMERIS_TYPE":0,"CLASSIFICATION_TYPE":"U","NORAD_CAT_ID":49286,"ELEMENT_SET_NO":999,"REV_AT_EPOCH":19125,"BSTAR":0.00038999902,"MEAN_MOTION_DOT":1.72e-6,"MEAN_MOTION_DDOT":0},{"OBJECT_NAME":"ONEWEB-0361","OBJECT_ID":"2021-090J","EPOCH":"2025-08-28T19:16:53.278752","MEAN_MOTION":13.2077309,"ECCENTRICITY":0.00020622,"INCLINATION":87.9293,"RA_OF_ASC_NODE":332.7195,"ARG_OF_PERICENTER":98.5888,"MEAN_ANOMALY":261.5479,"EPHEMERIS_TYPE":0,"CLASSIFICATION_TYPE":"U","NORAD_CAT_ID":49287,"ELEMENT_SET_NO":999,"REV_AT_EPOCH":19170,"BSTAR":-6.2177031e-5,"MEAN_MOTION_DOT":-1.2e-7,"MEAN_MOTION_DDOT":0}]
